start=new Date('2023-05-01T00:00:00.000Z').valueOf();
sats=[{"RCS_SIZE":"LARGE","INCLINATION":"53.0556","PERIOD":"95.593","MEAN_ANOMALY":"285.7999","ARG_OF_PERICENTER":"74.3136","OBJECT_NAME":"STARLINK-2635","SITE":"AFETR","PERIAPSIS":"546.359","COUNTRY_CODE":"US","EPHEMERIS_TYPE":"0","ECCENTRICITY":"0.00013220","ELEMENT_SET_NO":"999","EPOCH":"2023-04-29T23:06:25.101792","SEMIMAJOR_AXIS":"6925.410","BSTAR":"0.00134590000000","GP_ID":"230974516","OBJECT_TYPE":"PAYLOAD","OBJECT_ID":"2021-038C","APOAPSIS":"548.190","MEAN_MOTION_DDOT":"0.0000000000000","TLE_LINE1":"1 48355U 21038C   23119.96279053  .00019812  00000-0  13459-2 0  9991","CLASSIFICATION_TYPE":"U","LAUNCH_DATE":"2021-05-04","NORAD_CAT_ID":"48355","CENTER_NAME":"EARTH","TIME_SYSTEM":"UTC","RA_OF_ASC_NODE":"11.5813","FILE":"3897442","TLE_LINE2":"2 48355  53.0556  11.5813 0001322  74.3136 285.7999 15.06380070109562","REV_AT_EPOCH":"10956","MEAN_MOTION":"15.06380070","MEAN_MOTION_DOT":"0.00019812","DECAY_DATE":null,"MEAN_ELEMENT_THEORY":"SGP4","REF_FRAME":"TEME"},{"OBJECT_NAME":"STARLINK-2637","ARG_OF_PERICENTER":"78.3164","RCS_SIZE":"LARGE","MEAN_ANOMALY":"281.7944","INCLINATION":"53.0555","PERIOD":"95.591","PERIAPSIS":"546.442","SITE":"AFETR","COUNTRY_CODE":"US","EPHEMERIS_TYPE":"0","BSTAR":"0.00122710000000","EPOCH":"2023-04-30T21:18:39.523680","ELEMENT_SET_NO":"999","ECCENTRICITY":"0.00010620","SEMIMAJOR_AXIS":"6925.313","TLE_LINE1":"1 48356U 21038D   23120.88795745  .00018049  00000-0  12271-2 0  9998","CLASSIFICATION_TYPE":"U","LAUNCH_DATE":"2021-05-04","NORAD_CAT_ID":"48356","OBJECT_TYPE":"PAYLOAD","GP_ID":"230983561","MEAN_MOTION_DDOT":"0.0000000000000","APOAPSIS":"547.913","OBJECT_ID":"2021-038D","TIME_SYSTEM":"UTC","CENTER_NAME":"EARTH","DECAY_DATE":null,"MEAN_MOTION_DOT":"0.00018049","MEAN_ELEMENT_THEORY":"SGP4","FILE":"3897581","RA_OF_ASC_NODE":"7.4281","MEAN_MOTION":"15.06411675","TLE_LINE2":"2 48356  53.0555   7.4281 0001062  78.3164 281.7944 15.06411675110295","REV_AT_EPOCH":"11029","REF_FRAME":"TEME"},{"NORAD_CAT_ID":"48357","TLE_LINE1":"1 48357U 21038E   23120.09086458  .00022540  00000-0  15275-2 0  9994","LAUNCH_DATE":"2021-05-04","CLASSIFICATION_TYPE":"U","MEAN_MOTION_DDOT":"0.0000000000000","APOAPSIS":"548.064","OBJECT_ID":"2021-038E","OBJECT_TYPE":"PAYLOAD","GP_ID":"230976018","CENTER_NAME":"EARTH","TIME_SYSTEM":"UTC","MEAN_ELEMENT_THEORY":"SGP4","DECAY_DATE":null,"MEAN_MOTION_DOT":"0.00022540","MEAN_MOTION":"15.06394391","TLE_LINE2":"2 48357  53.0542  11.0303 0001203 130.3306 229.7789 15.06394391109586","REV_AT_EPOCH":"10958","FILE":"3897442","RA_OF_ASC_NODE":"11.0303","REF_FRAME":"TEME","OBJECT_NAME":"STARLINK-2636","ARG_OF_PERICENTER":"130.3306","MEAN_ANOMALY":"229.7789","INCLINATION":"53.0542","PERIOD":"95.592","RCS_SIZE":"LARGE","PERIAPSIS":"546.398","SITE":"AFETR","EPHEMERIS_TYPE":"0","COUNTRY_CODE":"US","BSTAR":"0.00152750000000","SEMIMAJOR_AXIS":"6925.366","EPOCH":"2023-04-30T02:10:50.699712","ELEMENT_SET_NO":"999","ECCENTRICITY":"0.00012030"},{"EPHEMERIS_TYPE":"0","COUNTRY_CODE":"US","SEMIMAJOR_AXIS":"6925.377","EPOCH":"2023-04-30T05:12:38.844000","ELEMENT_SET_NO":"999","ECCENTRICITY":"0.00011980","BSTAR":"0.00093926000000","MEAN_ANOMALY":"292.9066","PERIOD":"95.593","INCLINATION":"53.0547","RCS_SIZE":"LARGE","OBJECT_NAME":"STARLINK-2624","ARG_OF_PERICENTER":"67.2049","SITE":"AFETR","PERIAPSIS":"546.413","MEAN_MOTION":"15.06390636","REV_AT_EPOCH":"10959","TLE_LINE2":"2 48358  53.0547  10.4363 0001198  67.2049 292.9066 15.06390636109595","FILE":"3897442","RA_OF_ASC_NODE":"10.4363","MEAN_ELEMENT_THEORY":"SGP4","DECAY_DATE":null,"MEAN_MOTION_DOT":"0.00013733","REF_FRAME":"TEME","MEAN_MOTION_DDOT":"0.0000000000000","APOAPSIS":"548.072","OBJECT_ID":"2021-038F","OBJECT_TYPE":"PAYLOAD","GP_ID":"230975768","NORAD_CAT_ID":"48358","TLE_LINE1":"1 48358U 21038F   23120.21711625  .00013733  00000-0  93926-3 0  9994","CLASSIFICATION_TYPE":"U","LAUNCH_DATE":"2021-05-04","TIME_SYSTEM":"UTC","CENTER_NAME":"EARTH"},{"REF_FRAME":"TEME","MEAN_ELEMENT_THEORY":"SGP4","MEAN_MOTION_DOT":"0.00005328","DECAY_DATE":null,"TLE_LINE2":"2 48359  53.0550   7.4745 0001245  92.8542 267.2589 15.06399130110938","REV_AT_EPOCH":"11093","MEAN_MOTION":"15.06399130","RA_OF_ASC_NODE":"7.4745","FILE":"3897583","CENTER_NAME":"EARTH","TIME_SYSTEM":"UTC","NORAD_CAT_ID":"48359","TLE_LINE1":"1 48359U 21038G   23120.87690281  .00005328  00000-0  37629-3 0  9990","LAUNCH_DATE":"2021-05-04","CLASSIFICATION_TYPE":"U","OBJECT_ID":"2021-038G","MEAN_MOTION_DDOT":"0.0000000000000","APOAPSIS":"548.078","GP_ID":"230983589","OBJECT_TYPE":"PAYLOAD","BSTAR":"0.00037629000000","SEMIMAJOR_AXIS":"6925.351","ECCENTRICITY":"0.00012450","ELEMENT_SET_NO":"999","EPOCH":"2023-04-30T21:02:44.402784","EPHEMERIS_TYPE":"0","COUNTRY_CODE":"US","PERIAPSIS":"546.354","SITE":"AFETR","ARG_OF_PERICENTER":"92.8542","OBJECT_NAME":"STARLINK-2628","INCLINATION":"53.0550","PERIOD":"95.592","MEAN_ANOMALY":"267.2589","RCS_SIZE":"LARGE"},{"BSTAR":"0.00037931000000","ELEMENT_SET_NO":"999","EPOCH":"2023-04-30T01:50:57.172704","ECCENTRICITY":"0.00008150","SEMIMAJOR_AXIS":"6925.389","COUNTRY_CODE":"US","EPHEMERIS_TYPE":"0","PERIAPSIS":"546.689","SITE":"AFETR","OBJECT_NAME":"STARLINK-2622","ARG_OF_PERICENTER":"88.1251","RCS_SIZE":"LARGE","MEAN_ANOMALY":"271.9831","PERIOD":"95.593","INCLINATION":"53.0537","REF_FRAME":"TEME","DECAY_DATE":null,"MEAN_MOTION_DOT":"0.00005371","MEAN_ELEMENT_THEORY":"SGP4","FILE":"3897442","RA_OF_ASC_NODE":"11.0662","MEAN_MOTION":"15.06386836","REV_AT_EPOCH":"10957","TLE_LINE2":"2 48360  53.0537  11.0662 0000815  88.1251 271.9831 15.06386836109570","CENTER_NAME":"EARTH","TIME_SYSTEM":"UTC","TLE_LINE1":"1 48360U 21038H   23120.07705061  .00005371  00000-0  37931-3 0  9991","LAUNCH_DATE":"2021-05-04","CLASSIFICATION_TYPE":"U","NORAD_CAT_ID":"48360","OBJECT_TYPE":"PAYLOAD","GP_ID":"230975267","APOAPSIS":"547.818","MEAN_MOTION_DDOT":"0.0000000000000","OBJECT_ID":"2021-038H"},{"EPOCH":"2023-04-30T01:45:38.501856","ELEMENT_SET_NO":"999","ECCENTRICITY":"0.00012100","SEMIMAJOR_AXIS":"6925.436","BSTAR":"0.00170750000000","COUNTRY_CODE":"US","EPHEMERIS_TYPE":"0","SITE":"AFETR","PERIAPSIS":"546.463","RCS_SIZE":"LARGE","MEAN_ANOMALY":"281.4981","PERIOD":"95.594","INCLINATION":"53.0557","OBJECT_NAME":"STARLINK-2591","ARG_OF_PERICENTER":"78.6144","REF_FRAME":"TEME","FILE":"3897442","RA_OF_ASC_NODE":"11.0832","MEAN_MOTION":"15.06371457","REV_AT_EPOCH":"10957","TLE_LINE2":"2 48361  53.0557  11.0832 0001210  78.6144 281.4981 15.06371457109572","DECAY_DATE":null,"MEAN_MOTION_DOT":"0.00025223","MEAN_ELEMENT_THEORY":"SGP4","CENTER_NAME":"EARTH","TIME_SYSTEM":"UTC","OBJECT_TYPE":"PAYLOAD","GP_ID":"230975518","APOAPSIS":"548.139","MEAN_MOTION_DDOT":"0.0000000000000","OBJECT_ID":"2021-038J","TLE_LINE1":"1 48361U 21038J   23120.07336229  .00025223  00000-0  17075-2 0  9992","LAUNCH_DATE":"2021-05-04","CLASSIFICATION_TYPE":"U","NORAD_CAT_ID":"48361"},{"COUNTRY_CODE":"US","EPHEMERIS_TYPE":"0","ELEMENT_SET_NO":"999","EPOCH":"2023-04-30T02:33:25.607232","ECCENTRICITY":"0.00014540","SEMIMAJOR_AXIS":"6925.405","BSTAR":"0.00179040000000","RCS_SIZE":"LARGE","MEAN_ANOMALY":"298.4842","INCLINATION":"53.0547","PERIOD":"95.593","OBJECT_NAME":"STARLINK-2578","ARG_OF_PERICENTER":"61.6294","SITE":"AFETR","PERIAPSIS":"546.263","FILE":"3897442","RA_OF_ASC_NODE":"11.0271","MEAN_MOTION":"15.06381489","REV_AT_EPOCH":"10958","TLE_LINE2":"2 48362  53.0547  11.0271 0001454  61.6294 298.4842 15.06381489109588","DECAY_DATE":null,"MEAN_MOTION_DOT":"0.00026474","MEAN_ELEMENT_THEORY":"SGP4","REF_FRAME":"TEME","OBJECT_TYPE":"PAYLOAD","GP_ID":"230976269","APOAPSIS":"548.277","MEAN_MOTION_DDOT":"0.0000000000000","OBJECT_ID":"2021-038K","LAUNCH_DATE":"2021-05-04","TLE_LINE1":"1 48362U 21038K   23120.10654638  .00026474  00000-0  17904-2 0  9994","CLASSIFICATION_TYPE":"U","NORAD_CAT_ID":"48362","TIME_SYSTEM":"UTC","CENTER_NAME":"EARTH"},{"REF_FRAME":"TEME","MEAN_MOTION":"15.06390925","REV_AT_EPOCH":"11035","TLE_LINE2":"2 48363  53.0559   2.6142 0001125  95.9099 264.2018 15.06390925110351","FILE":"3897589","RA_OF_ASC_NODE":"2.6142","MEAN_ELEMENT_THEORY":"SGP4","DECAY_DATE":null,"MEAN_MOTION_DOT":"-0.00000061","TIME_SYSTEM":"UTC","CENTER_NAME":"EARTH","MEAN_MOTION_DDOT":"0.0000000000000","APOAPSIS":"548.020","OBJECT_ID":"2021-038L","OBJECT_TYPE":"PAYLOAD","GP_ID":"230983675","NORAD_CAT_ID":"48363","LAUNCH_DATE":"2021-05-04","TLE_LINE1":"1 48363U 21038L   23120.84603239 -.00000061  00000-0  14824-4 0  9992","CLASSIFICATION_TYPE":"U","SEMIMAJOR_AXIS":"6925.376","ELEMENT_SET_NO":"999","EPOCH":"2023-04-30T20:18:17.198496","ECCENTRICITY":"0.00011250","BSTAR":"0.00001482400000","EPHEMERIS_TYPE":"0","COUNTRY_CODE":"US","SITE":"AFETR","PERIAPSIS":"546.462","MEAN_ANOMALY":"264.2018","PERIOD":"95.593","INCLINATION":"53.0559","RCS_SIZE":"LARGE","OBJECT_NAME":"STARLINK-2626","ARG_OF_PERICENTER":"95.9099"},{"CLASSIFICATION_TYPE":"U","TLE_LINE1":"1 48364U 21038M   23120.06464198  .00020160  00000-0  13686-2 0  9990","LAUNCH_DATE":"2021-05-04","NORAD_CAT_ID":"48364","OBJECT_TYPE":"PAYLOAD","GP_ID":"230974767","MEAN_MOTION_DDOT":"0.0000000000000","APOAPSIS":"548.242","OBJECT_ID":"2021-038M","TIME_SYSTEM":"UTC","CENTER_NAME":"EARTH","DECAY_DATE":null,"MEAN_MOTION_DOT":"0.00020160","MEAN_ELEMENT_THEORY":"SGP4","FILE":"3897442","RA_OF_ASC_NODE":"6.3248","MEAN_MOTION":"15.06395346","REV_AT_EPOCH":"10964","TLE_LINE2":"2 48364  53.0545   6.3248 0001465 106.6403 253.4747 15.06395346109642","REF_FRAME":"TEME","OBJECT_NAME":"STARLINK-2611","ARG_OF_PERICENTER":"106.6403","RCS_SIZE":"LARGE","MEAN_ANOMALY":"253.4747","INCLINATION":"53.0545","PERIOD":"95.592","PERIAPSIS":"546.213","SITE":"AFETR","COUNTRY_CODE":"US","EPHEMERIS_TYPE":"0","BSTAR":"0.00136860000000","EPOCH":"2023-04-30T01:33:05.067072","ELEMENT_SET_NO":"999","ECCENTRICITY":"0.00014650","SEMIMAJOR_AXIS":"6925.363"}];
